[{"OBJECT_NAME":"STARLINK-31930","OBJECT_ID":"2024-150P","EPOCH":"2025-08-26T23:35:08.966688","MEAN_MOTION":15.30191877,"ECCENTRICITY":0.00012378,"INCLINATION":53.1596,"RA_OF_ASC_NODE":131.2209,"ARG_OF_PERICENTER":80.2142,"MEAN_ANOMALY":279.8999,"EPHEMERIS_TYPE":0,"CLASSIFICATION_TYPE":"U","NORAD_CAT_ID":60596,"ELEMENT_SET_NO":999,"REV_AT_EPOCH":5815,"BSTAR":3.3292993e-5,"MEAN_MOTION_DOT":6.27e-6,"MEAN_MOTION_DDOT":0},{"OBJECT_NAME":"STARLINK-32162","OBJECT_ID":"2024-150Q","EPOCH":"2025-08-26T23:12:31.112064","MEAN_MOTION":15.30189873,"ECCENTRICITY":0.00011511,"INCLINATION":53.1602,"RA_OF_ASC_NODE":131.8366,"ARG_OF_PERICENTER":86.2839,"MEAN_ANOMALY":273.8293,"EPHEMERIS_TYPE":0,"CLASSIFICATION_TYPE":"U","NORAD_CAT_ID":60597,"ELEMENT_SET_NO":999,"REV_AT_EPOCH":5822,"BSTAR":2.1729347e-5,"MEAN_MOTION_DOT":2.84e-6,"MEAN_MOTION_DDOT":0},{"OBJECT_NAME":"STARLINK-32208","OBJECT_ID":"2024-150R","EPOCH":"2025-08-26T23:17:04.498080","MEAN_MOTION":15.30191642,"ECCENTRICITY":0.00013511,"INCLINATION":53.1599,"RA_OF_ASC_NODE":131.8553,"ARG_OF_PERICENTER":93.7666,"MEAN_ANOMALY":266.3489,"EPHEMERIS_TYPE":0,"CLASSIFICATION_TYPE":"U","NORAD_CAT_ID":60598,"ELEMENT_SET_NO":999,"REV_AT_EPOCH":5822,"BSTAR":2.2436434e-5,"MEAN_MOTION_DOT":3.05e-6,"MEAN_MOTION_DDOT":0},{"OBJECT_NAME":"STARLINK-32165","OBJECT_ID":"2024-150S","EPOCH":"2025-08-27T02:11:30.696864","MEAN_MOTION":15.30186122,"ECCENTRICITY":0.00012814,"INCLINATION":53.1606,"RA_OF_ASC_NODE":131.1928,"ARG_OF_PERICENTER":74.7313,"MEAN_ANOMALY":285.383,"EPHEMERIS_TYPE":0,"CLASSIFICATION_TYPE":"U","NORAD_CAT_ID":60599,"ELEMENT_SET_NO":999,"REV_AT_EPOCH":5824,"BSTAR":-1.261068e-6,"MEAN_MOTION_DOT":-3.96e-6,"MEAN_MOTION_DDOT":0},{"OBJECT_NAME":"STARLINK-31923","OBJECT_ID":"2024-150T","EPOCH":"2025-08-27T01:56:18.716352","MEAN_MOTION":15.30197989,"ECCENTRICITY":0.00011824,"INCLINATION":53.1614,"RA_OF_ASC_NODE":131.1212,"ARG_OF_PERICENTER":79.1797,"MEAN_ANOMALY":280.9337,"EPHEMERIS_TYPE":0,"CLASSIFICATION_TYPE":"U","NORAD_CAT_ID":60600,"ELEMENT_SET_NO":999,"REV_AT_EPOCH":5824,"BSTAR":-5.9675492e-5,"MEAN_MOTION_DOT":-2.126e-5,"MEAN_MOTION_DDOT":0},{"OBJECT_NAME":"STARLINK-31988","OBJECT_ID":"2024-150U","EPOCH":"2025-08-27T03:21:14.971104","MEAN_MOTION":15.30190903,"ECCENTRICITY":0.00013269,"INCLINATION":53.1616,"RA_OF_ASC_NODE":130.7808,"ARG_OF_PERICENTER":99.6985,"MEAN_ANOMALY":260.4165,"EPHEMERIS_TYPE":0,"CLASSIFICATION_TYPE":"U","NORAD_CAT_ID":60601,"ELEMENT_SET_NO":999,"REV_AT_EPOCH":5817,"BSTAR":-5.252305e-6,"MEAN_MOTION_DOT":-5.15e-6,"MEAN_MOTION_DDOT":0},{"OBJECT_NAME":"STARLINK-31983","OBJECT_ID":"2024-150V","EPOCH":"2025-08-27T03:03:00.423936","MEAN_MOTION":15.30196685,"ECCENTRICITY":0.00011071,"INCLINATION":53.1599,"RA_OF_ASC_NODE":130.699,"ARG_OF_PERICENTER":81.9302,"MEAN_ANOMALY":278.1825,"EPHEMERIS_TYPE":0,"CLASSIFICATION_TYPE":"U","NORAD_CAT_ID":60602,"ELEMENT_SET_NO":999,"REV_AT_EPOCH":5817,"BSTAR":2.8747401e-5,"MEAN_MOTION_DOT":4.92e-6,"MEAN_MOTION_DDOT":0},{"OBJECT_NAME":"STARLINK-31874","OBJECT_ID":"2024-150W","EPOCH":"2025-08-27T00:04:01.273728","MEAN_MOTION":15.30192929,"ECCENTRICITY":0.00011006,"INCLINATION":53.1602,"RA_OF_ASC_NODE":131.345,"ARG_OF_PERICENTER":91.7364,"MEAN_ANOMALY":268.3763,"EPHEMERIS_TYPE":0,"CLASSIFICATION_TYPE":"U","NORAD_CAT_ID":60603,"ELEMENT_SET_NO":999,"REV_AT_EPOCH":5823,"BSTAR":7.523058e-6,"MEAN_MOTION_DOT":-1.36e-6,"MEAN_MOTION_DDOT":0},{"OBJECT_NAME":"STARLINK-32039","OBJECT_ID":"2024-150X","EPOCH":"2025-08-26T23:49:44.852736","MEAN_MOTION":15.30195385,"ECCENTRICITY":0.00012873,"INCLINATION":53.1602,"RA_OF_ASC_NODE":134.1298,"ARG_OF_PERICENTER":79.6305,"MEAN_ANOMALY":280.4841,"EPHEMERIS_TYPE":0,"CLASSIFICATION_TYPE":"U","NORAD_CAT_ID":60604,"ELEMENT_SET_NO":999,"REV_AT_EPOCH":5819,"BSTAR":3.5156912e-5,"MEAN_MOTION_DOT":6.82e-6,"MEAN_MOTION_DDOT":0},{"OBJECT_NAME":"STARLINK-11247 [DTC]","OBJECT_ID":"2024-152A","EPOCH":"2025-08-26T15:00:17.244576","MEAN_MOTION":15.69714759,"ECCENTRICITY":8.021e-5,"INCLINATION":53.1588,"RA_OF_ASC_NODE":358.1775,"ARG_OF_PERICENTER":81.4902,"MEAN_ANOMALY":278.6206,"EPHEMERIS_TYPE":0,"CLASSIFICATION_TYPE":"U","NORAD_CAT_ID":60720,"ELEMENT_SET_NO":999,"REV_AT_EPOCH":5819,"BSTAR":3.931013e-6,"MEAN_MOTION_DOT":-1.12e-6,"MEAN_MOTION_DDOT":0},{"OBJECT_NAME":"STARLINK-11259 [DTC]","OBJECT_ID":"2024-152B","EPOCH":"2025-08-26T14:53:13.563168","MEAN_MOTION":15.69710579,"ECCENTRICITY":8.734e-5,"INCLINATION":53.1591,"RA_OF_ASC_NODE":358.1443,"ARG_OF_PERICENTER":67.9907,"MEAN_ANOMALY":292.1204,"EPHEMERIS_TYPE":0,"CLASSIFICATION_TYPE":"U","NORAD_CAT_ID":60721,"ELEMENT_SET_NO":999,"REV_AT_EPOCH":5819,"BSTAR":-7.50396e-6,"MEAN_MOTION_DOT":-1.497e-5,"MEAN_MOTION_DDOT":0},{"OBJECT_NAME":"STARLINK-11188 [DTC]","OBJECT_ID":"2024-152C","EPOCH":"2025-08-27T01:27:56.812608","MEAN_MOTION":15.69712402,"ECCENTRICITY":9.273e-5,"INCLINATION":53.1591,"RA_OF_ASC_NODE":355.9128,"ARG_OF_PERICENTER":76.8075,"MEAN_ANOMALY":283.3047,"EPHEMERIS_TYPE":0,"CLASSIFICATION_TYPE":"U","NORAD_CAT_ID":60722,"ELEMENT_SET_NO":999,"REV_AT_EPOCH":5838,"BSTAR":-1.11553e-6,"MEAN_MOTION_DOT":-7.23e-6,"MEAN_MOTION_DDOT":0},{"OBJECT_NAME":"STARLINK-11272 [DTC]","OBJECT_ID":"2024-152D","EPOCH":"2025-08-27T01:13:48.762912","MEAN_MOTION":15.69725947,"ECCENTRICITY":9.247e-5,"INCLINATION":53.1588,"RA_OF_ASC_NODE":355.8491,"ARG_OF_PERICENTER":62.4935,"MEAN_ANOMALY":297.6177,"EPHEMERIS_TYPE":0,"CLASSIFICATION_TYPE":"U","NORAD_CAT_ID":60723,"ELEMENT_SET_NO":999,"REV_AT_EPOCH":5826,"BSTAR":-2.1555936e-5,"MEAN_MOTION_DOT":-3.201e-5,"MEAN_MOTION_DDOT":0},{"OBJECT_NAME":"STARLINK-11261 [DTC]","OBJECT_ID":"2024-152E","EPOCH":"2025-08-27T01:20:52.966176","MEAN_MOTION":15.69719214,"ECCENTRICITY":0.0001242,"INCLINATION":53.16,"RA_OF_ASC_NODE":355.8805,"ARG_OF_PERICENTER":83.5655,"MEAN_ANOMALY":276.5505,"EPHEMERIS_TYPE":0,"CLASSIFICATION_TYPE":"U","NORAD_CAT_ID":60724,"ELEMENT_SET_NO":999,"REV_AT_EPOCH":5826,"BSTAR":-7.536624e-6,"MEAN_MOTION_DOT":-1.502e-5,"MEAN_MOTION_DDOT":0},{"OBJECT_NAME":"STARLINK-11263 [DTC]","OBJECT_ID":"2024-152F","EPOCH":"2025-08-27T01:06:45.490176","MEAN_MOTION":15.69711162,"ECCENTRICITY":8.788e-5,"INCLINATION":53.159,"RA_OF_ASC_NODE":355.8159,"ARG_OF_PERICENTER":73.8828,"MEAN_ANOMALY":286.2287,"EPHEMERIS_TYPE":0,"CLASSIFICATION_TYPE":"U","NORAD_CAT_ID":60725,"ELEMENT_SET_NO":999,"REV_AT_EPOCH":5826,"BSTAR":-1.632183e-6,"MEAN_MOTION_DOT":-7.86e-6,"MEAN_MOTION_DDOT":0},{"OBJECT_NAME":"STARLINK-11235 [DTC]","OBJECT_ID":"2024-152G","EPOCH":"2025-08-27T00:59:41.411328","MEAN_MOTION":15.69711728,"ECCENTRICITY":9.276e-5,"INCLINATION":53.1587,"RA_OF_ASC_NODE":355.7817,"ARG_OF_PERICENTER":80.6302,"MEAN_ANOMALY":279.482,"EPHEMERIS_TYPE":0,"CLASSIFICATION_TYPE":"U","NORAD_CAT_ID":60726,"ELEMENT_SET_NO":999,"REV_AT_EPOCH":5839,"BSTAR":3.991098e-6,"MEAN_MOTION_DOT":-1.05e-6,"MEAN_MOTION_DDOT":0}]
