STARLINK-31930          
1 60596U 24150P   25238.98274267  .00000627  00000+0  33293-4 0  9991
2 60596  53.1596 131.2209 0001237  80.2142 279.8999 15.30191877 58159
STARLINK-32162          
1 60597U 24150Q   25238.96702676  .00000284  00000+0  21729-4 0  9990
2 60597  53.1602 131.8366 0001151  86.2839 273.8293 15.30189873 58224
STARLINK-32208          
1 60598U 24150R   25238.97019095  .00000305  00000+0  22436-4 0  9998
2 60598  53.1599 131.8553 0001351  93.7666 266.3489 15.30191642 58222
STARLINK-32165          
1 60599U 24150S   25239.09132751 -.00000396  00000+0 -12611-5 0  9995
2 60599  53.1606 131.1928 0001281  74.7313 285.3830 15.30186122 58241
STARLINK-31923          
1 60600U 24150T   25239.08077218 -.00002126  00000+0 -59675-4 0  9996
2 60600  53.1614 131.1212 0001182  79.1797 280.9337 15.30197989 58240
STARLINK-31988          
1 60601U 24150U   25239.13975661 -.00000515  00000+0 -52523-5 0  9998
2 60601  53.1616 130.7808 0001326  99.6985 260.4165 15.30190903 58178
STARLINK-31983          
1 60602U 24150V   25239.12708824  .00000492  00000+0  28747-4 0  9995
2 60602  53.1599 130.6990 0001107  81.9302 278.1825 15.30196685 58176
STARLINK-31874          
1 60603U 24150W   25239.00279252 -.00000136  00000+0  75231-5 0  9998
2 60603  53.1602 131.3450 0001100  91.7364 268.3763 15.30192929 58237
STARLINK-32039          
1 60604U 24150X   25238.99288024  .00000682  00000+0  35157-4 0  9990
2 60604  53.1602 134.1298 0001287  79.6305 280.4841 15.30195385 58191
STARLINK-11247 [DTC]    
1 60720U 24152A   25238.62519959 -.00000112  00000+0  39310-5 0  9990
2 60720  53.1588 358.1775 0000802  81.4902 278.6206 15.69714759 58195
STARLINK-11259 [DTC]    
1 60721U 24152B   25238.62029587 -.00001497  00000+0 -75040-5 0  9992
2 60721  53.1591 358.1443 0000873  67.9907 292.1204 15.69710579 58199
STARLINK-11188 [DTC]    
1 60722U 24152C   25239.06107422 -.00000723  00000+0 -11155-5 0  9995
2 60722  53.1591 355.9128 0000927  76.8075 283.3047 15.69712402 58385
STARLINK-11272 [DTC]    
1 60723U 24152D   25239.05125883 -.00003201  00000+0 -21556-4 0  9995
2 60723  53.1588 355.8491 0000924  62.4935 297.6177 15.69725947 58264
STARLINK-11261 [DTC]    
1 60724U 24152E   25239.05616859 -.00001502  00000+0 -75366-5 0  9995
2 60724  53.1600 355.8805 0001242  83.5655 276.5505 15.69719214 58267
STARLINK-11263 [DTC]    
1 60725U 24152F   25239.04635984 -.00000786  00000+0 -16322-5 0  9995
2 60725  53.1590 355.8159 0000878  73.8828 286.2287 15.69711162 58265
STARLINK-11235 [DTC]    
1 60726U 24152G   25239.04145152 -.00000105  00000+0  39911-5 0  9992
2 60726  53.1587 355.7817 0000927  80.6302 279.4820 15.69711728 58399
